[
    {
        "Altitude(m)": 604234.616601988,
        "Argument of Periapsis(deg)": 0.0,
        "Eccentricity": 0.0,
        "Inclination(deg)": 60.0,
        "Latitude(deg)": 14.117277805631776,
        "Longitude(deg)": 156.727352408929,
        "Mean Anomaly(deg)": 163.6364,
        "RAAN(deg)": 85.00000000000001,
        "Satellite Name": "Test1 384",
        "Satellite Number": 384,
        "Semi-Major Axis(m)": 6980739.136638005,
        "Time(s)": 0
    },
    {
        "Altitude(m)": 604223.4448276517,
        "Argument of Periapsis(deg)": 0.00010418945913296404,
        "Eccentricity": 0.0,
        "Inclination(deg)": 60.0,
        "Latitude(deg)": 13.58241367090215,
        "Longitude(deg)": 157.01426064765835,
        "Mean Anomaly(deg)": 164.25650614546186,
        "RAAN(deg)": 84.99957995086027,
        "Satellite Name": "Test1 384",
        "Satellite Number": 384,
        "Semi-Major Axis(m)": 6980739.136638005,
        "Time(s)": 10
    }
]